[{"OBJECT_NAME":"STARLINK-31131","OBJECT_ID":"2023-211G","EPOCH":"2026-03-09T01:45:42.965280","MEAN_MOTION":15.27583424,"ECCENTRICITY":5.739e-5,"INCLINATION":43.0006,"RA_OF_ASC_NODE":77.9577,"ARG_OF_PERICENTER":106.9553,"MEAN_ANOMALY":253.1361,"EPHEMERIS_TYPE":0,"CLASSIFICATION_TYPE":"U","NORAD_CAT_ID":58673,"ELEMENT_SET_NO":999,"REV_AT_EPOCH":12377,"BSTAR":-9.3708123e-5,"MEAN_MOTION_DOT":-2.84e-5,"MEAN_MOTION_DDOT":0},{"OBJECT_NAME":"COSMOS 546","OBJECT_ID":"1973-005A","EPOCH":"2026-03-09T21:40:39.247392","MEAN_MOTION":15.29707303,"ECCENTRICITY":0.00147738,"INCLINATION":50.6327,"RA_OF_ASC_NODE":289.914,"ARG_OF_PERICENTER":261.1516,"MEAN_ANOMALY":98.7778,"EPHEMERIS_TYPE":0,"CLASSIFICATION_TYPE":"U","NORAD_CAT_ID":6350,"ELEMENT_SET_NO":999,"REV_AT_EPOCH":92802,"BSTAR":9.142057e-5,"MEAN_MOTION_DOT":2.316e-5,"MEAN_MOTION_DDOT":0}]
